NORAD_CAT_ID,OBJECT_NAME,OBJECT_TYPE,EPOCH,MEAN_MOTION,ECCENTRICITY,INCLINATION,RA_OF_ASC_NODE,ARG_OF_PERICENTER,MEAN_ANOMALY,BSTAR,MEAN_MOTION_DOT,MEAN_MOTION_DDOT,TLE_LINE0,TLE_LINE1,TLE_LINE2,SEMIMAJOR_AXIS,PERIOD,APOGEE,PERIGEE,DECAYED
52623.0,STARLINK-3986,PAYLOAD,2022-12-31 07:06:21,15.08884663,0.0002742,53.2161,96.2929,56.8518,303.2737,0.00079339,0.00012377,0.0,0 STARLINK-3986,1 52623U 22052AB  22365.29608118  .00012377  00000-0  79339-3 0  9996,2 52623  53.2161  96.2929 0002742  56.8518 303.2737 15.08884663 35588,6917.744000000002,95.435,541.506,537.712,0.0
52623.0,STARLINK-3986,PAYLOAD,2022-12-31 13:27:53,15.08868829,0.0002809,53.2154,95.1013,29.6673,330.4478,0.00028774,4.298e-05,0.0,0 STARLINK-3986,1 52623U 22052AB  22365.56103835  .00004298  00000-0  28774-3 0  9992,2 52623  53.2154  95.1013 0002809  29.6673 330.4478 15.08868829 35249,6917.792,95.436,541.6,537.714,0.0
52623.0,STARLINK-3986,PAYLOAD,2022-12-31 23:00:12,15.08857072,0.0002683999999999,53.2152,93.3186,31.9666,328.1488,0.00011922,1.6100000000000002e-05,0.0,0 STARLINK-3986,1 52623U 22052AB  22365.95847786  .00001610  00000-0  11922-3 0  9997,2 52623  53.2152  93.3186 0002684  31.9666 328.1488 15.08857072 35688,6917.828,95.436,541.55,537.836,0.0
52623.0,STARLINK-3986,PAYLOAD,2023-01-01 10:07:55,15.08808752,0.0001838,53.2153,91.2372,359.8942,0.2049,0.00065464,0.00010137,0.0,0 STARLINK-3986,1 52623U 22052AB  23001.42216665  .00010137  00000-0  65464-3 0  9997,2 52623  53.2153  91.2372 0001838 359.8942   0.2049 15.08808752 35370,6917.976,95.44,541.112,538.569,0.0
52623.0,STARLINK-3986,PAYLOAD,2023-01-01 14:54:05,15.08804976,0.0002079,53.2154,90.3441,8.1902,351.9124,0.0011224,0.00017603,0.0,0 STARLINK-3986,1 52623U 22052AB  23001.62089270  .00017603  00000-0  11224-2 0  9998,2 52623  53.2154  90.3441 0002079   8.1902 351.9124 15.08804976 35785,6917.986999999999,95.44,541.2909999999998,538.414,0.0
52623.0,STARLINK-3986,PAYLOAD,2023-01-01 22:51:01,15.08806493,0.0002301,53.2147,88.8565,19.8372,340.271,0.00067232,0.00010418,0.0,0 STARLINK-3986,1 52623U 22052AB  23001.95210213  .00010418  00000-0  67232-3 0  9995,2 52623  53.2147  88.8565 0002301  19.8372 340.2710 15.08806493 35838,6917.983,95.44,541.44,538.256,0.0
52623.0,STARLINK-3986,PAYLOAD,2023-01-02 11:34:07,15.08833348,0.0002556,53.2153,86.4799,25.8412,334.2708,0.0013250999999999,0.00020861,0.0,0 STARLINK-3986,1 52623U 22052AB  23002.48202917  .00020861  00000-0  13251-2 0  9990,2 52623  53.2153  86.4799 0002556  25.8412 334.2708 15.08833348 35910,6917.901,95.438,541.534,537.998,0.0
52623.0,STARLINK-3986,PAYLOAD,2023-01-02 13:09:30,15.08833717,0.0002556,53.2156,86.1827,26.1069,334.0051,0.0012385,0.00019475,0.0,0 STARLINK-3986,1 52623U 22052AB  23002.54826964  .00019475  00000-0  12385-2 0  9997,2 52623  53.2156  86.1827 0002556  26.1069 334.0051 15.08833717 35542,6917.9,95.438,541.533,537.996,0.0
52623.0,STARLINK-3986,PAYLOAD,2023-01-03 11:24:54,15.08849069,0.0002734,53.2164,82.0203,30.3843,329.7308,0.00056509,8.719e-05,0.0,0 STARLINK-3986,1 52623U 22052AB  23003.47562814  .00008719  00000-0  56509-3 0  9997,2 52623  53.2164  82.0203 0002734  30.3843 329.7308 15.08849069 36060,6917.853,95.437,541.609,537.826,0.0
52623.0,STARLINK-3986,PAYLOAD,2023-01-04 11:15:41,15.08856069,0.0002721,53.216,77.5593,29.8543,330.2603,0.00068962,0.00010709,0.0,0 STARLINK-3986,1 52623U 22052AB  23004.46922462  .00010709  00000-0  68962-3 0  9994,2 52623  53.2160  77.5593 0002721  29.8543 330.2603 15.08856069 36213,6917.831,95.437,541.5790000000002,537.814,0.0
52623.0,STARLINK-3986,PAYLOAD,2023-01-05 04:44:54,15.08874869,0.0002753999999999,53.2173,74.2895,31.5832,328.5325,0.00063584,9.856e-05,0.0,0 STARLINK-3986,1 52623U 22052AB  23005.19785106  .00009856  00000-0  63584-3 0  9993,2 52623  53.2173  74.2895 0002754  31.5832 328.5325 15.08874869 35941,6917.774,95.435,541.544,537.734,0.0
52623.0,STARLINK-3986,PAYLOAD,2023-01-06 10:57:13,15.08825609,0.0002754,53.2176,68.6387,25.7808,334.3321,-0.000628,-0.00010266,0.0,0 STARLINK-3986,1 52623U 22052AB  23006.45641020 -.00010266  00000-0 -62800-3 0  9998,2 52623  53.2176  68.6387 0002754  25.7808 334.3321 15.08825609 36518,6917.924,95.438,541.695,537.884,0.0
52623.0,STARLINK-3986,PAYLOAD,2023-01-07 04:26:28,15.08835263,0.0002856,53.217,65.3678,38.4779,321.6417,-0.00011007,-2.04e-05,0.0,0 STARLINK-3986,1 52623U 22052AB  23007.18505130 -.00002040  00000-0 -11007-3 0  9994,2 52623  53.2170  65.3678 0002856  38.4779 321.6417 15.08835263 36624,6917.895,95.438,541.736,537.784,0.0
52623.0,STARLINK-3986,PAYLOAD,2023-01-07 20:20:20,15.08819745,0.000261,53.2183,62.3921,20.8875,339.2224,-9.9071e-06,-4.46e-06,0.0,0 STARLINK-3986,1 52623U 22052AB  23007.84746470 -.00000446  00000-0 -99071-5 0  9998,2 52623  53.2183  62.3921 0002610  20.8875 339.2224 15.08819745 36343,6917.941999999999,95.439,541.613,538.002,0.0
52623.0,STARLINK-3986,PAYLOAD,2023-01-08 04:17:17,15.0881505,0.0002818,53.2171,60.9072,22.9831,337.1287,0.00016232,2.294e-05,0.0,0 STARLINK-3986,1 52623U 22052AB  23008.17867437  .00002294  00000-0  16232-3 0  9999,2 52623  53.2171  60.9072 0002818  22.9831 337.1287 15.08815050 36774,6917.956999999999,95.439,541.771,537.872,0.0
52623.0,STARLINK-3986,PAYLOAD,2023-01-08 12:14:13,15.08825496,0.0002791,53.2161,59.4207,21.0933,339.0174,0.00020734,3.012e-05,0.0,0 STARLINK-3986,1 52623U 22052AB  23008.50987404  .00003012  00000-0  20734-3 0  9994,2 52623  53.2161  59.4207 0002791  21.0933 339.0174 15.08825496 36826,6917.925,95.438,541.721,537.859,0.0
52623.0,STARLINK-3986,PAYLOAD,2023-01-08 13:49:36,15.08827806,0.0003058999999999,53.2152,59.1232,24.531,335.5828,0.00021811,3.183e-05,0.0,0 STARLINK-3986,1 52623U 22052AB  23008.57611531  .00003183  00000-0  21811-3 0  9992,2 52623  53.2152  59.1232 0003059  24.5310 335.5828 15.08827806 36459,6917.9180000000015,95.438,541.899,537.6659999999998,0.0
52623.0,STARLINK-3986,PAYLOAD,2023-01-08 20:11:08,15.08841638,0.0002843,53.2178,57.9337,25.0606,335.0524,0.00054883,8.458e-05,0.0,0 STARLINK-3986,1 52623U 22052AB  23008.84107232  .00008458  00000-0  54883-3 0  9995,2 52623  53.2178  57.9337 0002843  25.0606 335.0524 15.08841638 36876,6917.875,95.437,541.707,537.774,0.0
52623.0,STARLINK-3986,PAYLOAD,2023-01-09 04:08:04,15.0885114,0.0002827,53.217,56.4469,24.4345,335.67800000000005,0.00096867,0.00015167,0.0,0 STARLINK-3986,1 52623U 22052AB  23009.17227267  .00015167  00000-0  96867-3 0  9996,2 52623  53.2170  56.4469 0002827  24.4345 335.6780 15.08851140 36546,6917.846,95.437,541.6669999999998,537.756,0.0
52623.0,STARLINK-3986,PAYLOAD,2023-01-10 02:23:27,15.08850627,0.0002641,53.2157,52.2835,16.6492,343.4586,0.00043221,6.599e-05,0.0,0 STARLINK-3986,1 52623U 22052AB  23010.09962867  .00006599  00000-0  43221-3 0  9996,2 52623  53.2157  52.2835 0002641  16.6492 343.4586 15.08850627 37060,6917.848000000001,95.437,541.54,537.886,0.0
52623.0,STARLINK-3986,PAYLOAD,2023-01-10 10:20:23,15.08845409,0.0002774,53.2176,50.7972,20.3594,339.7508,0.00017727,2.534e-05,0.0,0 STARLINK-3986,1 52623U 22052AB  23010.43083001  .00002534  00000-0  17727-3 0  9995,2 52623  53.2176  50.7972 0002774  20.3594 339.7508 15.08845409 36735,6917.864000000001,95.437,541.648,537.81,0.0
52623.0,STARLINK-3986,PAYLOAD,2023-01-11 08:35:48,15.08839586,0.0003034,53.2152,46.6331,17.8152,342.2946,0.0001182,1.593e-05,0.0,0 STARLINK-3986,1 52623U 22052AB  23011.35819785  .00001593  00000-0  11820-3 0  9995,2 52623  53.2152  46.6331 0003034  17.8152 342.2946 15.08839586 37255,6917.882,95.438,541.846,537.648,0.0
52623.0,STARLINK-3986,PAYLOAD,2023-01-11 19:43:30,15.08843822,0.0002942,53.2155,44.5521,23.5048,336.6078,0.00032291,4.855e-05,0.0,0 STARLINK-3986,1 52623U 22052AB  23011.82187836  .00004855  00000-0  32291-3 0  9991,2 52623  53.2155  44.5521 0002942  23.5048 336.6078 15.08843822 36947,6917.8690000000015,95.437,541.769,537.698,0.0
52623.0,STARLINK-3986,PAYLOAD,2023-01-12 08:26:35,15.08843277,0.0002691,53.2165,42.1721,28.9276,331.1865,0.00027407,4.077e-05,0.0,0 STARLINK-3986,1 52623U 22052AB  23012.35179776  .00004077  00000-0  27407-3 0  9993,2 52623  53.2165  42.1721 0002691  28.9276 331.1865 15.08843277 37025,6917.87,95.437,541.597,537.874,0.0
52623.0,STARLINK-3986,PAYLOAD,2023-01-13 08:17:22,15.08846379,0.0002668,53.2157,37.7126,35.2214,324.8954,0.00024433,3.603e-05,0.0,0 STARLINK-3986,1 52623U 22052AB  23013.34540086  .00003603  00000-0  24433-3 0  9999,2 52623  53.2157  37.7126 0002668  35.2214 324.8954 15.08846379 37554,6917.861,95.437,541.572,537.88,0.0
52623.0,STARLINK-3986,PAYLOAD,2023-01-14 01:46:37,15.08839297,0.0002663,53.2161,34.4401,36.756,323.3614,0.00013011,1.783e-05,0.0,0 STARLINK-3986,1 52623U 22052AB  23014.07404532  .00001783  00000-0  13011-3 0  9992,2 52623  53.2161  34.4401 0002663  36.7560 323.3614 15.08839297 37664,6917.883000000001,95.438,541.59,537.905,0.0
52623.0,STARLINK-3986,PAYLOAD,2023-01-14 11:18:56,15.08858021,0.0002491,53.2164,32.6566,44.9819,315.1375,0.0013383,0.00021086,0.0,0 STARLINK-3986,1 52623U 22052AB  23014.47148208  .00021086  00000-0  13383-2 0  9990,2 52623  53.2164  32.6566 0002491  44.9819 315.1375 15.08858021 37722,6917.825,95.436,541.414,537.967,0.0
52623.0,STARLINK-3986,PAYLOAD,2023-01-14 17:40:28,15.08841004,0.0002359,53.2163,31.465,46.4418,313.677,0.00033008,4.969e-05,0.0,0 STARLINK-3986,1 52623U 22052AB  23014.73644387  .00004969  00000-0  33008-3 0  9996,2 52623  53.2163  31.4650 0002359  46.4418 313.6770 15.08841004 37766,6917.877,95.437,541.374,538.11,0.0
52623.0,STARLINK-3986,PAYLOAD,2023-01-15 11:09:43,15.08851771,0.0002492,53.2162,28.1959,58.0836,302.0399,0.00074574,0.00011604,0.0,0 STARLINK-3986,1 52623U 22052AB  23015.46508420  .00011604  00000-0  74574-3 0  9991,2 52623  53.2162  28.1959 0002492  58.0836 302.0399 15.08851771 37492,6917.844,95.437,541.433,537.985,0.0
